[{"OBJECT_NAME":"STARLINK-32468","OBJECT_ID":"2024-224L","EPOCH":"2026-03-09T06:03:55.936800","MEAN_MOTION":15.27581167,"ECCENTRICITY":8.536e-5,"INCLINATION":43.0007,"RA_OF_ASC_NODE":160.5338,"ARG_OF_PERICENTER":242.2543,"MEAN_ANOMALY":117.8222,"EPHEMERIS_TYPE":0,"CLASSIFICATION_TYPE":"U","NORAD_CAT_ID":62149,"ELEMENT_SET_NO":999,"REV_AT_EPOCH":7225,"BSTAR":0.0014268879,"MEAN_MOTION_DOT":0.00039213,"MEAN_MOTION_DDOT":0},{"OBJECT_NAME":"HAWK-11A","OBJECT_ID":"2024-247F","EPOCH":"2026-03-09T12:17:43.893312","MEAN_MOTION":15.28849427,"ECCENTRICITY":0.00054663,"INCLINATION":44.9941,"RA_OF_ASC_NODE":114.3328,"ARG_OF_PERICENTER":327.3713,"MEAN_ANOMALY":32.6832,"EPHEMERIS_TYPE":0,"CLASSIFICATION_TYPE":"U","NORAD_CAT_ID":62382,"ELEMENT_SET_NO":999,"REV_AT_EPOCH":6774,"BSTAR":0.00034106017,"MEAN_MOTION_DOT":9.457e-5,"MEAN_MOTION_DDOT":0}]
